IRIDIUM 126             
1 42809U 17039G   25293.49378524  .00000142  00000+0  43703-4 0  9993
2 42809  86.3918  93.8513 0002318  89.0050 271.1411 14.34219651435594
IRIDIUM 124             
1 42810U 17039H   25293.30635623  .00000864  00000+0  25074-3 0  9992
2 42810  86.4531  30.6331 0002075  89.4487 270.6952 14.43282298440512
IRIDIUM 128             
1 42811U 17039J   25293.62407428  .00000180  00000+0  57384-4 0  9999
2 42811  86.3939 125.3288 0001761  79.0515 281.0879 14.34216201435648
IRIDIUM 121             
1 42812U 17039K   25293.58257920  .00000069  00000+0  17736-4 0  9998
2 42812  86.3919  93.8402 0001926  90.9590 269.1826 14.34217986435484
IRIDIUM 133             
1 42955U 17061A   25293.58600269  .00000040  00000+0  73611-5 0  9993
2 42955  86.3941 125.4567 0002046  86.3382 273.8047 14.34218298420436
IRIDIUM 100             
1 42956U 17061B   25293.57965907  .00000172  00000+0  54416-4 0  9993
2 42956  86.3939 125.3836 0002151  83.5014 276.6426 14.34219308420435
IRIDIUM 122             
1 42957U 17061C   25293.61771538  .00000051  00000+0  10970-4 0  9997
2 42957  86.3939 125.3671 0002136  84.8909 275.2531 14.34218642420446
IRIDIUM 129             
1 42958U 17061D   25293.29424148  .00000177  00000+0  56144-4 0  9996
2 42958  86.3940 125.5669 0002351  95.5869 264.5595 14.34218626420411
